algorithm,apogee,argOfPerigee,bStar,classificationMarking,elset_created_at,elset_created_by,dataMode,eccentricity,idElset,idOnOrbit,inclination,line1,line2,meanAnomaly,meanMotion,meanMotionDDot,meanMotionDot,origNetwork,perigee,period,raan,revNo,satNo,semiMajorAxis,source,__START_AT,__END_AT,COUNTRY,LAUNCH,LAUNCH_NUM,LAUNCH_PIECE,NORAD_CAT_ID,OBJECT_ID,OBJECT_NAME,OBJECT_NUMBER,OBJECT_TYPE,RCS_SIZE,SATNAME,SITE,satcat_current_fetch_date
SGP4,6926.287,92.9443,6.9221E-5,U,2024-01-31T15:05:13.962Z,system.ob-ingest,REAL,1.32E-4,004108e4-d1e5-4590-ba1d-b694f0022b63,46376,53.0561,1 46376U 20062BD  24031.44785752 +.00000750 +00000+0 +69221-4 0 99992,2 46376  53.0561 180.3871 0001320  92.9443 267.1697 15.06392132189326,267.1697,15.06392132,0.0,7.5E-6,OPS1,6924.459,95.593,180.3871,18932,46376,6925.373,18th SPCS,2024-01-31T10:44:54.889728Z,2024-02-02T08:55:32.881440Z,US,2020-09-03,62,BD,46376,2020-062BD,STARLINK-1742,46376,PAYLOAD,LARGE,STARLINK-1742,AFETR,2024-08-21
SGP4,6576.565,312.6137,0.0029024,U,2023-03-24T10:05:09.962Z,system.ob-ingest,REAL,7.459E-4,fda9f346-8c53-48d3-89e0-a41133704bc1,46552,53.0042,1 46552U 20070W   23083.37519219 +.13224810 +12164-4 +29024-2 0 99991,2 46552  53.0042 249.7987 0007459 312.6137  40.6073 16.29633022137883,40.6073,16.29633022,1.2164E-5,0.1322481,OPS1,6566.761,88.363,249.7987,13788,46552,6571.663,18th SPCS,2023-03-24T09:00:16.605216Z,"",US,2020-10-06,70,W,46552,2020-070W,STARLINK-1649,46552,PAYLOAD,LARGE,STARLINK-1649,AFETR,2024-08-21
SGP4,6548.282,168.6935,9.8642E-4,U,2023-06-16T06:05:16.701Z,system.ob-ingest,REAL,0.0019473,03a790aa-7c82-4ad3-b7ab-fe3040df6074,46560,52.9901,1 46560U 20070AE  23167.17774840 +.33715401 +12133-4 +98642-3 0 99996,2 46560  52.9901 245.9345 0019473 168.6935 274.6048 16.43156836150395,274.6048,16.43156836,1.2133E-5,0.33715401,OPS1,6522.829,87.636,245.9345,15039,46560,6535.555,18th SPCS,2023-06-16T04:15:57.461760Z,"",US,2020-10-06,70,AE,46560,2020-070AE,STARLINK-1706,46560,PAYLOAD,LARGE,STARLINK-1706,AFETR,2024-08-21
SGP4,6926.499,82.4934,-3.1428E-5,U,2024-01-31T23:05:15.114Z,system.ob-ingest,REAL,1.64E-4,912dd6aa-ace3-4751-8080-108b4ba73247,46780,53.0551,1 46780U 20074AT  24031.73351286 -.00000750 +00000+0 -31428-4 0 99997,2 46780  53.0551 159.1053 0001640  82.4934 277.6241 15.06395259180790,277.6241,15.06395259,0.0,-7.5E-6,OPS1,6924.227,95.592,159.1053,18079,46780,6925.363,18th SPCS,2024-01-31T17:36:15.511104Z,2024-02-01T14:18:15.508512Z,US,2020-10-24,74,AT,46780,2020-074AT,STARLINK-1832,46780,PAYLOAD,LARGE,STARLINK-1832,AFETR,2024-08-21
SGP4,6926.394,105.6482,-1.9926E-4,U,2024-02-01T05:05:14.119Z,system.ob-ingest,REAL,1.441E-4,d9254ece-858d-4434-a830-6618cabc150e,47175,53.054,1 47175U 20088BF  24031.68835498 -.00003247 +00000+0 -19926-3 0 99999,2 47175  53.0540 129.3076 0001441 105.6482 254.4666 15.06384439176366,254.4666,15.06384439,0.0,-3.247E-5,OPS1,6924.398,95.593,129.3076,17636,47175,6925.396,18th SPCS,2024-01-31T16:31:13.870272Z,2024-02-01T11:37:42.515040Z,US,2020-11-25,88,BF,47175,2020-088BF,STARLINK-1895,47175,PAYLOAD,LARGE,STARLINK-1895,AFETR,2024-08-21
SGP4,6931.344,83.9316,8.9856E-5,U,2024-01-31T23:05:15.443Z,system.ob-ingest,REAL,1.412E-4,f21f67ee-e50e-4d8f-8844-05db15df0a62,47354,53.0536,1 47354U 21005F   24030.98090641 +.00001004 +00000+0 +89856-4 0 99990,2 47354  53.0536 237.9180 0001412  83.9316 276.1833 15.04764544167661,276.1833,15.04764544,0.0,1.004E-5,OPS1,6929.387,95.696,237.918,16766,47354,6930.366,18th SPCS,2024-01-30T23:32:30.313824Z,2024-02-01T12:12:17.449920Z,US,2021-01-20,5,F,47354,2021-005F,STARLINK-2046,47354,PAYLOAD,LARGE,STARLINK-2046,AFETR,2024-08-21
SGP4,6926.346,82.0238,2.4555E-4,U,2024-02-01T07:05:13.742Z,system.ob-ingest,REAL,1.468E-4,cf86cb7b-3dd7-45d8-9dc0-30b5c40deec7,47595,53.0533,1 47595U 21009AZ  24031.99798369 +.00003378 +00000+0 +24555-3 0 99995,2 47595  53.0533 247.9196 0001468  82.0238 278.0918 15.06406333165403,278.0918,15.06406333,0.0,3.378E-5,OPS1,6924.313,95.592,247.9196,16540,47595,6925.329,18th SPCS,2024-01-31T23:57:05.790816Z,2024-02-01T23:50:11.659200Z,US,2021-02-04,9,AZ,47595,2021-009AZ,STARLINK-2000,47595,PAYLOAD,LARGE,STARLINK-2000,AFETR,2024-08-21
SGP4,6926.256,106.4805,4.3151E-4,U,2024-02-01T05:05:13.951Z,system.ob-ingest,REAL,1.329E-4,dd1c266f-8cc2-4c47-ae56-35a97ecf4d2f,47625,53.0546,1 47625U 21012F   24031.68834522 +.00006152 +00000+0 +43151-3 0 99997,2 47625  53.0546 279.3051 0001329 106.4805 253.6330 15.06404310164226,253.633,15.0640431,0.0,6.152E-5,OPS1,6924.415,95.592,279.3051,16422,47625,6925.335,18th SPCS,2024-01-31T16:31:13.027008Z,2024-02-01T16:24:18.315648Z,US,2021-02-16,12,F,47625,2021-012F,STARLINK-1704,47625,PAYLOAD,LARGE,STARLINK-1704,AFETR,2024-08-21
SGP4,6926.462,99.3367,3.8512E-5,U,2024-01-31T23:05:15.481Z,system.ob-ingest,REAL,1.599E-4,ca39c151-a668-4708-913a-b10447bc3ad9,47749,53.054,1 47749U 21017AD  24031.31239636 +.00000292 +00000+0 +38512-4 0 99999,2 47749  53.0540  50.9990 0001599  99.3367 260.7802 15.06398121162058,260.7802,15.06398121,0.0,2.92E-6,OPS1,6924.247,95.592,50.999,16205,47749,6925.354,18th SPCS,2024-01-31T07:29:51.045504Z,2024-02-01T04:11:51.538848Z,US,2021-03-04,17,AD,47749,2021-017AD,STARLINK-2163,47749,PAYLOAD,LARGE,STARLINK-2163,AFETR,2024-08-21
SGP4,6926.313,97.917,-5.3278E-5,U,2024-01-31T15:05:14.001Z,system.ob-ingest,REAL,1.362E-4,1d1e1883-1b71-4af5-b5f4-d9206716d897,47762,53.0527,1 47762U 21017AS  24031.50360025 -.00001075 +00000+0 -53278-4 0 99990,2 47762  53.0527  75.1501 0001362  97.9170 262.1973 15.06393195161105,262.1973,15.06393195,0.0,-1.075E-5,OPS1,6924.426,95.593,75.1501,16110,47762,6925.369,18th SPCS,2024-01-31T12:05:11.061600Z,2024-02-01T11:58:16.637952Z,US,2021-03-04,17,AS,47762,2021-017AS,STARLINK-2180,47762,PAYLOAD,LARGE,STARLINK-2180,AFETR,2024-08-21
SGP4,6926.344,94.5167,1.0644E-4,U,2024-01-31T15:05:13.605Z,system.ob-ingest,REAL,1.432E-4,d046fc7e-8ec2-4798-b8e1-da6d153db351,47778,53.0541,1 47778U 21017BJ  24031.45891215 +.00001304 +00000+0 +10644-3 0 99993,2 47778  53.0541  60.3393 0001432  94.5167 265.5986 15.06398938161314,265.5986,15.06398938,0.0,1.304E-5,OPS1,6924.36,95.592,60.3393,16131,47778,6925.352,18th SPCS,2024-01-31T11:00:50.009760Z,2024-02-01T10:53:55.283712Z,US,2021-03-04,17,BJ,47778,2021-017BJ,STARLINK-2211,47778,PAYLOAD,LARGE,STARLINK-2211,AFETR,2024-08-21
SGP4,6926.094,97.3107,-7.1183E-5,U,2024-02-01T05:05:13.806Z,system.ob-ingest,REAL,1.058E-4,af8f9b16-c24d-4d4f-9de2-58d692127305,47842,53.054,1 47842U 21018BH  24031.62754023 -.00001341 +00000+0 -71183-4 0 99999,2 47842  53.0540 109.5829 0001058  97.3107 262.8003 15.06395814160740,262.8003,15.06395814,0.0,-1.341E-5,OPS1,6924.629,95.592,109.5829,16074,47842,6925.361,18th SPCS,2024-01-31T15:03:39.475872Z,2024-02-01T11:45:39.686688Z,US,2021-03-11,18,BH,47842,2021-018BH,STARLINK-2434,47842,PAYLOAD,LARGE,STARLINK-2434,AFETR,2024-08-21
SGP4,6926.533,130.9386,-4.8893E-5,U,2024-02-01T05:05:13.828Z,system.ob-ingest,REAL,1.678E-4,5324c3ce-34cb-4c55-b36b-73622fb044ab,47861,53.0547,1 47861U 21021B   24031.63629203 -.00001010 +00000+0 -48893-4 0 99991,2 47861  53.0547 114.5454 0001678 130.9386 229.1749 15.06392864160508,229.1749,15.06392864,0.0,-1.01E-5,OPS1,6924.208,95.593,114.5454,16050,47861,6925.37,18th SPCS,2024-01-31T15:16:15.631392Z,2024-02-01T11:58:15.844800Z,US,2021-03-14,21,B,47861,2021-021B,STARLINK-2280,47861,PAYLOAD,LARGE,STARLINK-2280,AFETR,2024-08-21
SGP4,6926.377,91.0273,-1.3705E-4,U,2024-01-31T23:05:15.380Z,system.ob-ingest,REAL,1.443E-4,efea660a-a61a-44e2-9d37-ab12936899c1,47991,53.0534,1 47991U 21024Q   24031.60173636 -.00002322 +00000+0 -13705-3 0 99999,2 47991  53.0534 109.7057 0001443  91.0273 269.0881 15.06390527159833,269.0881,15.06390527,0.0,-2.322E-5,OPS1,6924.378,95.593,109.7057,15983,47991,6925.378,18th SPCS,2024-01-31T14:26:30.021504Z,2024-02-01T11:08:31.054848Z,US,2021-03-24,24,Q,47991,2021-024Q,STARLINK-2279,47991,PAYLOAD,LARGE,STARLINK-2279,AFETR,2024-08-21
SGP4,6926.319,91.7414,6.9542E-6,U,2024-01-31T23:05:15.686Z,system.ob-ingest,REAL,1.377E-4,fa9b307c-7463-489d-8415-06e85a91d58c,48117,53.0557,1 48117U 21027AB  24031.22759692 -.00000178 +00000+0 +69542-5 0 99991,2 48117  53.0557   1.3710 0001377  91.7414 268.3733 15.06394385156877,268.3733,15.06394385,0.0,-1.78E-6,OPS1,6924.412,95.592,1.371,15687,48117,6925.366,18th SPCS,2024-01-31T05:27:44.373888Z,2024-02-01T05:20:49.615872Z,US,2021-04-07,27,AB,48117,2021-027AB,STARLINK-2455,48117,PAYLOAD,LARGE,STARLINK-2455,AFETR,2024-08-21
SGP4,6926.237,96.1386,-1.1724E-4,U,2024-02-01T05:05:13.947Z,system.ob-ingest,REAL,1.322E-4,b79bbd67-2c87-4451-847a-9ae580cfb559,48288,53.0533,1 48288U 21036N   24031.68837207 -.00002028 +00000+0 -11724-3 0 99993,2 48288  53.0533 289.3909 0001322  96.1386 263.9754 15.06408881152557,263.9754,15.06408881,0.0,-2.028E-5,OPS1,6924.406,95.592,289.3909,15255,48288,6925.321,18th SPCS,2024-01-31T16:31:15.346848Z,2024-02-01T00:28:57.131616Z,US,2021-04-29,36,N,48288,2021-036N,STARLINK-2562,48288,PAYLOAD,LARGE,STARLINK-2562,AFETR,2024-08-21
SGP4,6926.131,96.2435,9.4124E-4,U,2024-02-01T05:05:14.002Z,system.ob-ingest,REAL,1.163E-4,4daad03b-a0df-4a1a-8717-37e88df52768,48321,53.0535,1 48321U 21036AX  24031.81552980 +.00013769 +00000+0 +94124-3 0 99995,2 48321  53.0535 308.7391 0001163  96.2435 263.8686 15.06407447152298,263.8686,15.06407447,0.0,1.3769E-4,OPS1,6924.52,95.592,308.7391,15229,48321,6925.326,18th SPCS,2024-01-31T19:34:21.774720Z,2024-02-01T01:56:31.008480Z,US,2021-04-29,36,AX,48321,2021-036AX,STARLINK-2457,48321,PAYLOAD,LARGE,STARLINK-2457,AFETR,2024-08-21
SGP4,6926.141,96.1383,1.382E-4,U,2024-02-01T05:05:14.073Z,system.ob-ingest,REAL,1.139E-4,e37fda90-3232-4021-8212-b876b69c3262,48360,53.0531,1 48360U 21038H   24031.87633496 +.00001778 +00000+0 +13820-3 0 99999,2 48360  53.0531 208.4622 0001139  96.1383 263.9735 15.06398702151292,263.9735,15.06398702,0.0,1.778E-5,OPS1,6924.564,95.592,208.4622,15129,48360,6925.353,18th SPCS,2024-01-31T21:01:55.340544Z,2024-02-01T11:21:47.144448Z,US,2021-05-04,38,H,48360,2021-038H,STARLINK-2622,48360,PAYLOAD,LARGE,STARLINK-2622,AFETR,2024-08-21
